{"type": "FeatureCollection", "features": [{"type": "Feature", "properties": {"norad_id": 25590, "name": "COSMOS 2361", "group": "musson", "lat": 47.62240251024712, "lon": -7.731995170567224, "alt_km": 1000.989755988161, "timestamp": "2025-12-12T05:47:29.040705+00:00", "meta": {"OBJECT_NAME": "COSMOS 2361", "OBJECT_ID": "1998-076A", "EPOCH": "2025-12-12T00:34:20.098272", "MEAN_MOTION": 13.73217397, "ECCENTRICITY": 0.00300501, "INCLINATION": 82.9339, "RA_OF_ASC_NODE": 344.6159, "ARG_OF_PERICENTER": 267.6747, "MEAN_ANOMALY": 145.8363, "EPHEMERIS_TYPE": 0, "CLASSIFICATION_TYPE": "U", "NORAD_CAT_ID": 25590, "ELEMENT_SET_NO": 999, "REV_AT_EPOCH": 35101, "BSTAR": 9.102882e-05, "MEAN_MOTION_DOT": 9.9e-07, "MEAN_MOTION_DDOT": 0}, "tle": {"line1": "1 25590U 98076A   25346.02384373  .00000099  00000+0  91029-4 0  9993", "line2": "2 25590  82.9339 344.6159 0030050 267.6747 145.8363 13.73217397351019"}}, "geometry": {"type": "Point", "coordinates": [-7.731995170567224, 47.62240251024712]}}, {"type": "Feature", "properties": {"norad_id": 26818, "name": "COSMOS 2378", "group": "musson", "lat": 60.59647005087276, "lon": 167.3679411102487, "alt_km": 977.8473477074267, "timestamp": "2025-12-12T05:47:29.040727+00:00", "meta": {"OBJECT_NAME": "COSMOS 2378", "OBJECT_ID": "2001-023A", "EPOCH": "2025-12-12T00:16:08.499072", "MEAN_MOTION": 13.74141904, "ECCENTRICITY": 0.00323555, "INCLINATION": 82.9272, "RA_OF_ASC_NODE": 0.2651, "ARG_OF_PERICENTER": 206.9705, "MEAN_ANOMALY": 214.325, "EPHEMERIS_TYPE": 0, "CLASSIFICATION_TYPE": "U", "NORAD_CAT_ID": 26818, "ELEMENT_SET_NO": 999, "REV_AT_EPOCH": 22913, "BSTAR": 6.1489044e-05, "MEAN_MOTION_DOT": 7.3e-07, "MEAN_MOTION_DDOT": 0}, "tle": {"line1": "1 26818U 01023A   25346.01120948  .00000073  00000+0  61489-4 0  9997", "line2": "2 26818  82.9272   0.2651 0032355 206.9705 214.3250 13.74141904229136"}}, "geometry": {"type": "Point", "coordinates": [167.3679411102487, 60.59647005087276]}}, {"type": "Feature", "properties": {"norad_id": 27436, "name": "COSMOS 2389", "group": "musson", "lat": -36.2799355450238, "lon": -57.857780366265196, "alt_km": 992.4715744358546, "timestamp": "2025-12-12T05:47:29.040740+00:00", "meta": {"OBJECT_NAME": "COSMOS 2389", "OBJECT_ID": "2002-026A", "EPOCH": "2025-12-11T23:16:39.835200", "MEAN_MOTION": 13.75154503, "ECCENTRICITY": 0.00476461, "INCLINATION": 82.9502, "RA_OF_ASC_NODE": 307.5545, "ARG_OF_PERICENTER": 62.8297, "MEAN_ANOMALY": 358.3699, "EPHEMERIS_TYPE": 0, "CLASSIFICATION_TYPE": "U", "NORAD_CAT_ID": 27436, "ELEMENT_SET_NO": 999, "REV_AT_EPOCH": 18138, "BSTAR": 9.0868328e-05, "MEAN_MOTION_DOT": 1.03e-06, "MEAN_MOTION_DDOT": 0}, "tle": {"line1": "1 27436U 02026A   25345.96990550  .00000103  00000+0  90868-4 0  9992", "line2": "2 27436  82.9502 307.5545 0047646  62.8297 358.3699 13.75154503181388"}}, "geometry": {"type": "Point", "coordinates": [-57.857780366265196, -36.2799355450238]}}, {"type": "Feature", "properties": {"norad_id": 27818, "name": "COSMOS 2398", "group": "musson", "lat": -76.34732760317596, "lon": -117.56917502280758, "alt_km": 1021.8875842386224, "timestamp": "2025-12-12T05:47:29.040753+00:00", "meta": {"OBJECT_NAME": "COSMOS 2398", "OBJECT_ID": "2003-023A", "EPOCH": "2025-12-11T21:45:28.320192", "MEAN_MOTION": 13.72385648, "ECCENTRICITY": 0.00325489, "INCLINATION": 82.9485, "RA_OF_ASC_NODE": 273.3122, "ARG_OF_PERICENTER": 114.027, "MEAN_ANOMALY": 314.8069, "EPHEMERIS_TYPE": 0, "CLASSIFICATION_TYPE": "U", "NORAD_CAT_ID": 27818, "ELEMENT_SET_NO": 999, "REV_AT_EPOCH": 12805, "BSTAR": 8.8661953e-05, "MEAN_MOTION_DOT": 9.7e-07, "MEAN_MOTION_DDOT": 0}, "tle": {"line1": "1 27818U 03023A   25345.90657778  .00000097  00000+0  88662-4 0  9991", "line2": "2 27818  82.9485 273.3122 0032548 114.0270 314.8069 13.72385648128055"}}, "geometry": {"type": "Point", "coordinates": [-117.56917502280758, -76.34732760317596]}}, {"type": "Feature", "properties": {"norad_id": 28380, "name": "COSMOS 2407", "group": "musson", "lat": 68.11412858690737, "lon": 15.348632745417913, "alt_km": 953.0794310400443, "timestamp": "2025-12-12T05:47:29.040764+00:00", "meta": {"OBJECT_NAME": "COSMOS 2407", "OBJECT_ID": "2004-028A", "EPOCH": "2025-12-12T00:33:45.809568", "MEAN_MOTION": 13.76313516, "ECCENTRICITY": 0.00403568, "INCLINATION": 82.9607, "RA_OF_ASC_NODE": 213.4231, "ARG_OF_PERICENTER": 56.7953, "MEAN_ANOMALY": 54.7307, "EPHEMERIS_TYPE": 0, "CLASSIFICATION_TYPE": "U", "NORAD_CAT_ID": 28380, "ELEMENT_SET_NO": 999, "REV_AT_EPOCH": 7413, "BSTAR": 6.5680561e-05, "MEAN_MOTION_DOT": 8e-07, "MEAN_MOTION_DDOT": 0}, "tle": {"line1": "1 28380U 04028A   25346.02344687  .00000080  00000+0  65681-4 0  9996", "line2": "2 28380  82.9607 213.4231 0040356  56.7953  54.7307 13.76313516 74131"}}, "geometry": {"type": "Point", "coordinates": [15.348632745417913, 68.11412858690737]}}, {"type": "Feature", "properties": {"norad_id": 28521, "name": "COSMOS 2414", "group": "musson", "lat": -7.265264076012118, "lon": -175.86711179195424, "alt_km": 965.1883692419788, "timestamp": "2025-12-12T05:47:29.040774+00:00", "meta": {"OBJECT_NAME": "COSMOS 2414", "OBJECT_ID": "2005-002A", "EPOCH": "2025-12-11T22:54:21.354048", "MEAN_MOTION": 13.87902748, "ECCENTRICITY": 0.00408511, "INCLINATION": 82.9492, "RA_OF_ASC_NODE": 185.2539, "ARG_OF_PERICENTER": 141.8778, "MEAN_ANOMALY": 218.5288, "EPHEMERIS_TYPE": 0, "CLASSIFICATION_TYPE": "U", "NORAD_CAT_ID": 28521, "ELEMENT_SET_NO": 999, "REV_AT_EPOCH": 5784, "BSTAR": 7.2989428e-05, "MEAN_MOTION_DOT": 1.03e-06, "MEAN_MOTION_DDOT": 0}, "tle": {"line1": "1 28521U 05002A   25345.95441382  .00000103  00000+0  72989-4 0  9992", "line2": "2 28521  82.9492 185.2539 0040851 141.8778 218.5288 13.87902748 57848"}}, "geometry": {"type": "Point", "coordinates": [-175.86711179195424, -7.265264076012118]}}, {"type": "Feature", "properties": {"norad_id": 32052, "name": "COSMOS 2429", "group": "musson", "lat": 29.33659108970787, "lon": 159.70565583731812, "alt_km": 989.9770465116817, "timestamp": "2025-12-12T05:47:29.040785+00:00", "meta": {"OBJECT_NAME": "COSMOS 2429", "OBJECT_ID": "2007-038A", "EPOCH": "2025-12-11T23:49:38.884224", "MEAN_MOTION": 13.7514927, "ECCENTRICITY": 0.00392802, "INCLINATION": 82.9803, "RA_OF_ASC_NODE": 343.8594, "ARG_OF_PERICENTER": 39.9033, "MEAN_ANOMALY": 320.4999, "EPHEMERIS_TYPE": 0, "CLASSIFICATION_TYPE": "U", "NORAD_CAT_ID": 32052, "ELEMENT_SET_NO": 999, "REV_AT_EPOCH": 91592, "BSTAR": 8.1370909e-05, "MEAN_MOTION_DOT": 9.4e-07, "MEAN_MOTION_DDOT": 0}, "tle": {"line1": "1 32052U 07038A   25345.99281116  .00000094  00000+0  81371-4 0  9992", "line2": "2 32052  82.9803 343.8594 0039280  39.9033 320.4999 13.75149270915920"}}, "geometry": {"type": "Point", "coordinates": [159.70565583731812, 29.33659108970787]}}, {"type": "Feature", "properties": {"norad_id": 35635, "name": "COSMOS 2454", "group": "musson", "lat": 39.040278546024034, "lon": 174.77788538681284, "alt_km": 913.7216226528926, "timestamp": "2025-12-12T05:47:29.040795+00:00", "meta": {"OBJECT_NAME": "COSMOS 2454", "OBJECT_ID": "2009-039A", "EPOCH": "2025-12-12T00:57:50.820192", "MEAN_MOTION": 13.89928507, "ECCENTRICITY": 0.00204556, "INCLINATION": 82.9553, "RA_OF_ASC_NODE": 169.1753, "ARG_OF_PERICENTER": 75.5946, "MEAN_ANOMALY": 38.1596, "EPHEMERIS_TYPE": 0, "CLASSIFICATION_TYPE": "U", "NORAD_CAT_ID": 35635, "ELEMENT_SET_NO": 999, "REV_AT_EPOCH": 83140, "BSTAR": 8.09549e-05, "MEAN_MOTION_DOT": 1.16e-06, "MEAN_MOTION_DDOT": 0}, "tle": {"line1": "1 35635U 09039A   25346.04017153  .00000116  00000+0  80955-4 0  9992", "line2": "2 35635  82.9553 169.1753 0020455  75.5946  38.1596 13.89928507831400"}}, "geometry": {"type": "Point", "coordinates": [174.77788538681284, 39.040278546024034]}}, {"type": "Feature", "properties": {"norad_id": 36519, "name": "COSMOS 2463", "group": "musson", "lat": 66.35420854989795, "lon": -169.31033187396875, "alt_km": 1012.8323856907073, "timestamp": "2025-12-12T05:47:29.040821+00:00", "meta": {"OBJECT_NAME": "COSMOS 2463", "OBJECT_ID": "2010-017A", "EPOCH": "2025-12-11T14:13:57.760896", "MEAN_MOTION": 13.71649103, "ECCENTRICITY": 0.00348194, "INCLINATION": 82.9614, "RA_OF_ASC_NODE": 27.5553, "ARG_OF_PERICENTER": 291.3603, "MEAN_ANOMALY": 221.8907, "EPHEMERIS_TYPE": 0, "CLASSIFICATION_TYPE": "U", "NORAD_CAT_ID": 36519, "ELEMENT_SET_NO": 999, "REV_AT_EPOCH": 78221, "BSTAR": 6.3765742e-05, "MEAN_MOTION_DOT": 7.2e-07, "MEAN_MOTION_DDOT": 0}, "tle": {"line1": "1 36519U 10017A   25345.59302964  .00000072  00000+0  63766-4 0  9990", "line2": "2 36519  82.9614  27.5553 0034819 291.3603 221.8907 13.71649103782216"}}, "geometry": {"type": "Point", "coordinates": [-169.31033187396875, 66.35420854989795]}}]}